NORAD_CAT_ID,OBJECT_NAME,OBJECT_TYPE,EPOCH,MEAN_MOTION,ECCENTRICITY,INCLINATION,RA_OF_ASC_NODE,ARG_OF_PERICENTER,MEAN_ANOMALY,BSTAR,MEAN_MOTION_DOT,MEAN_MOTION_DDOT,TLE_LINE0,TLE_LINE1,TLE_LINE2,SEMIMAJOR_AXIS,PERIOD,APOGEE,PERIGEE,DECAYED
52641.0,STARLINK-3991,PAYLOAD,2023-11-16 09:14:02,15.08840017,0.0001299,53.2184,89.5565,83.72,276.394,0.00016779,2.383e-05,0.0,0 STARLINK-3991,1 52641U 22052AV  23320.38474786  .00002383  00000-0  16779-3 0  9995,2 52641  53.2184  89.5565 0001299  83.7200 276.3940 15.08840017 84043,6917.88,95.438,540.644,538.847,0.0
52641.0,STARLINK-3991,PAYLOAD,2023-11-17 12:15:36,15.08831591,0.0001436,53.2183,84.4981,102.2844,257.8309,-2.1689e-05,-6.33e-06,0.0,0 STARLINK-3991,1 52641U 22052AV  23321.51083722 -.00000633  00000-0 -21689-4 0  9992,2 52641  53.2183  84.4981 0001436 102.2844 257.8309 15.08831591 84211,6917.906,95.438,540.765,538.778,0.0
52641.0,STARLINK-3991,PAYLOAD,2023-11-17 15:26:22,15.0882797,0.0001272,53.2186,83.9055,85.5928,274.521,-3.8379e-05,-8.98e-06,0.0,0 STARLINK-3991,1 52641U 22052AV  23321.64332098 -.00000898  00000-0 -38379-4 0  9996,2 52641  53.2186  83.9055 0001272  85.5928 274.5210 15.08827970 83867,6917.917,95.438,540.662,538.902,0.0
52641.0,STARLINK-3991,PAYLOAD,2023-11-18 08:55:37,15.08826878,0.0001147,53.2177,80.6315,69.4094,290.7021,-3.7249e-05,-8.8e-06,0.0,0 STARLINK-3991,1 52641U 22052AV  23322.37196263 -.00000880  00000-0 -37249-4 0  9995,2 52641  53.2177  80.6315 0001147  69.4094 290.7021 15.08826878 83974,6917.92,95.438,540.579,538.992,0.0
52641.0,STARLINK-3991,PAYLOAD,2023-11-18 15:17:09,15.08826346,0.0001221,53.2186,79.4472,98.1847,261.9284,0.00014768,2.062e-05,0.0,0 STARLINK-3991,1 52641U 22052AV  23322.63691334  .00002062  00000-0  14768-3 0  9995,2 52641  53.2186  79.4472 0001221  98.1847 261.9284 15.08826346 84389,6917.922,95.438,540.632,538.942,0.0
52641.0,STARLINK-3991,PAYLOAD,2023-11-19 13:32:33,15.08832455,0.0001348,53.2187,75.2845,100.2172,259.8972,0.00016262,2.301e-05,0.0,0 STARLINK-3991,1 52641U 22052AV  23323.56427645  .00002301  00000-0  16262-3 0  9997,2 52641  53.2187  75.2845 0001348 100.2172 259.8972 15.08832455 84157,6917.903,95.438,540.701,538.836,0.0
52641.0,STARLINK-3991,PAYLOAD,2023-11-19 15:07:56,15.08835038,0.0001312,53.2182,74.9869,99.3733,260.7407,0.0001836,2.635e-05,0.0,0 STARLINK-3991,1 52641U 22052AV  23323.63051464  .00002635  00000-0  18360-3 0  9998,2 52641  53.2182  74.9869 0001312  99.3733 260.7407 15.08835038 84161,6917.896,95.438,540.668,538.853,0.0
52641.0,STARLINK-3991,PAYLOAD,2023-11-20 02:15:38,15.08835005,0.0001344,53.2178,72.9049,89.0912,271.0234,9.7159e-05,1.259e-05,0.0,0 STARLINK-3991,1 52641U 22052AV  23324.09419893  .00001259  00000-0  97159-4 0  9998,2 52641  53.2178  72.9049 0001344  89.0912 271.0234 15.08835005 84600,6917.896,95.438,540.69,538.831,0.0
52641.0,STARLINK-3991,PAYLOAD,2023-11-20 13:23:20,15.08838584,0.0001461,53.2182,70.8248,90.8075,269.3084,5.3774e-05,5.68e-06,0.0,0 STARLINK-3991,1 52641U 22052AV  23324.55788018  .00000568  00000-0  53774-4 0  9994,2 52641  53.2182  70.8248 0001461  90.8075 269.3084 15.08838584 84308,6917.885,95.438,540.76,538.739,0.0
52641.0,STARLINK-3991,PAYLOAD,2023-11-20 14:58:43,15.08844803,0.0001434,53.219,70.527,76.9737,283.1415,8.5868e-05,1.079e-05,0.0,0 STARLINK-3991,1 52641U 22052AV  23324.62411579  .00001079  00000-0  85868-4 0  9994,2 52641  53.2190  70.5270 0001434  76.9737 283.1415 15.08844803 84313,6917.866,95.437,540.723,538.739,0.0
52641.0,STARLINK-3991,PAYLOAD,2023-11-21 13:14:07,15.08847433,0.0001416,53.2186,66.3659,83.1703,276.945,2.6206e-05,1.29e-06,0.0,0 STARLINK-3991,1 52641U 22052AV  23325.55147456  .00000129  00000-0  26206-4 0  9993,2 52641  53.2186  66.3659 0001416  83.1703 276.9450 15.08847433 84451,6917.858,95.437,540.702,538.743,0.0
52641.0,STARLINK-3991,PAYLOAD,2023-11-21 16:24:53,15.08851077,0.0001583,53.2201,65.7671,86.5536,273.5637,8.7881e-05,1.111e-05,0.0,0 STARLINK-3991,1 52641U 22052AV  23325.68394924  .00001111  00000-0  87881-4 0  9999,2 52641  53.2201  65.7671 0001583  86.5536 273.5637 15.08851077 84473,6917.847,95.437,540.807,538.616,0.0
52641.0,STARLINK-3991,PAYLOAD,2023-11-22 13:04:53,15.08850837,0.0001564,53.2196,61.9066,77.0862,283.0304,0.00011991,1.621e-05,0.0,0 STARLINK-3991,1 52641U 22052AV  23326.54506672  .00001621  00000-0  11991-3 0  9994,2 52641  53.2196  61.9066 0001564  77.0862 283.0304 15.08850837 84603,6917.847,95.437,540.794,538.63,0.0
52641.0,STARLINK-3991,PAYLOAD,2023-11-23 11:20:19,15.08829746,0.0001495,53.2174,57.7355,120.2376,239.8765,-6.9752e-05,-1.398e-05,0.0,0 STARLINK-3991,1 52641U 22052AV  23327.47244560 -.00001398  00000-0 -69752-4 0  9994,2 52641  53.2174  57.7355 0001495 120.2376 239.8765 15.08829746 85119,6917.912,95.438,540.811,538.743,0.0
52641.0,STARLINK-3991,PAYLOAD,2023-11-23 12:55:42,15.08828191,0.0001787,53.2191,57.4436,126.4116,233.7041,-7.3032e-05,-1.45e-05,0.0,0 STARLINK-3991,1 52641U 22052AV  23327.53868791 -.00001450  00000-0 -73032-4 0  9994,2 52641  53.2191  57.4436 0001787 126.4116 233.7041 15.08828191 84751,6917.916,95.438,541.018,538.545,0.0
52641.0,STARLINK-3991,PAYLOAD,2023-11-24 11:11:06,15.08840396,0.0001401,53.2181,53.2775,96.5221,263.593,-4.969e-05,-1.079e-05,0.0,0 STARLINK-3991,1 52641U 22052AV  23328.46604672 -.00001079  00000-0 -49690-4 0  9993,2 52641  53.2181  53.2775 0001401  96.5221 263.5930 15.08840396 85263,6917.879,95.438,540.713,538.775,0.0
52641.0,STARLINK-3991,PAYLOAD,2023-11-24 14:21:52,15.08840176,0.0001599,53.219,52.6904,105.9179,254.1989,0.00013907,1.926e-05,0.0,0 STARLINK-3991,1 52641U 22052AV  23328.59852608  .00001926  00000-0  13907-3 0  9991,2 52641  53.2190  52.6904 0001599 105.9179 254.1989 15.08840176 84912,6917.88,95.438,540.851,538.639,0.0
52641.0,STARLINK-3991,PAYLOAD,2023-11-24 15:57:15,15.08844402,0.0001569,53.2189,52.3861,104.9411,255.1755,0.0001528,2.145e-05,0.0,0 STARLINK-3991,1 52641U 22052AV  23328.66476402  .00002145  00000-0  15280-3 0  9993,2 52641  53.2189  52.3861 0001569 104.9411 255.1755 15.08844402 84923,6917.867,95.437,540.817,538.647,0.0
52641.0,STARLINK-3991,PAYLOAD,2023-11-25 12:37:16,15.08854567,0.00014,53.2185,48.5192,101.2153,258.8997,0.00054498,8.399e-05,0.0,0 STARLINK-3991,1 52641U 22052AV  23329.52588374  .00008399  00000-0  54498-3 0  9992,2 52641  53.2185  48.5192 0001400 101.2153 258.8997 15.08854567 85056,6917.836,95.437,540.669,538.732,0.0
52641.0,STARLINK-3991,PAYLOAD,2023-11-26 09:17:16,15.08859519,0.0001535,53.2186,44.6599,105.3427,254.7735,0.00019421,2.806e-05,0.0,0 STARLINK-3991,1 52641U 22052AV  23330.38699573  .00002806  00000-0  19421-3 0  9996,2 52641  53.2186  44.6599 0001535 105.3427 254.7735 15.08859519 85555,6917.821,95.436,540.748,538.624,0.0
52641.0,STARLINK-3991,PAYLOAD,2023-11-26 12:28:02,15.08869982,0.0001452,53.219,44.0605,97.8685,262.2472,0.00037069,5.621e-05,0.0,0 STARLINK-3991,1 52641U 22052AV  23330.51946797  .00005621  00000-0  37069-3 0  9990,2 52641  53.2190  44.0605 0001452  97.8685 262.2472 15.08869982 85200,6917.789,95.436,540.658,538.649,0.0
52641.0,STARLINK-3991,PAYLOAD,2023-11-26 23:35:44,15.08845765,0.0001652,53.2193,41.9794,129.4152,230.6987,-0.00013064,-2.367e-05,0.0,0 STARLINK-3991,1 52641U 22052AV  23330.98315225 -.00002367  00000-0 -13064-3 0  9992,2 52641  53.2193  41.9794 0001652 129.4152 230.6987 15.08845765 85642,6917.863,95.437,540.871,538.585,0.0
52641.0,STARLINK-3991,PAYLOAD,2023-11-27 12:18:51,15.08810632,0.0001426,53.2181,39.6004,67.4873,292.627,-0.00058507,-9.58e-05,0.0,0 STARLINK-3991,1 52641U 22052AV  23331.51309542 -.00009580  00000-0 -58507-3 0  9992,2 52641  53.2181  39.6004 0001426  67.4873 292.6270 15.08810632 85724,6917.97,95.439,540.822,538.849,0.0
52641.0,STARLINK-3991,PAYLOAD,2023-11-27 13:54:14,15.08812919,0.0001231,53.2186,39.3004,82.9166,277.1966,-0.00053535,-8.791e-05,0.0,0 STARLINK-3991,1 52641U 22052AV  23331.57933563 -.00008791  00000-0 -53535-3 0  9993,2 52641  53.2186  39.3004 0001231  82.9166 277.1966 15.08812919 85367,6917.963,95.439,540.68,538.977,0.0
52641.0,STARLINK-3991,PAYLOAD,2023-11-28 12:09:38,15.08851974,0.0001462,53.2182,35.1398,80.0426,280.0731,0.00054569,8.41e-05,0.0,0 STARLINK-3991,1 52641U 22052AV  23332.50669237  .00008410  00000-0  54569-3 0  9995,2 52641  53.2182  35.1398 0001462  80.0426 280.0731 15.08851974 85870,6917.844,95.437,540.72,538.697,0.0
52641.0,STARLINK-3991,PAYLOAD,2023-11-29 10:25:02,15.08847877,0.0002263,53.2181,30.9811,55.4439,304.6766,0.00062657,9.7e-05,0.0,0 STARLINK-3991,1 52641U 22052AV  23333.43406017  .00009700  00000-0  62657-3 0  9993,2 52641  53.2181  30.9811 0002263  55.4439 304.6766 15.08847877 86017,6917.856,95.437,541.287,538.156,0.0
52641.0,STARLINK-3991,PAYLOAD,2023-11-30 10:15:48,15.08855048,0.0001629,53.2183,26.5167,100.6215,259.4961,0.00013153,1.807e-05,0.0,0 STARLINK-3991,1 52641U 22052AV  23334.42764871  .00001807  00000-0  13153-3 0  9995,2 52641  53.2183  26.5167 0001629 100.6215 259.4961 15.08855048 86163,6917.834,95.437,540.826,538.572,0.0
52641.0,STARLINK-3991,PAYLOAD,2023-12-01 08:31:12,15.08844763,0.0001634,53.2192,22.3548,78.4364,281.6811,4.4071e-05,4.14e-06,0.0,0 STARLINK-3991,1 52641U 22052AV  23335.35501150  .00000414  00000-0  44071-4 0  9994,2 52641  53.2192  22.3548 0001634  78.4364 281.6811 15.08844763 86302,6917.866,95.437,540.861,538.6,0.0
52641.0,STARLINK-3991,PAYLOAD,2023-12-02 09:57:21,15.08891059,0.0001604,53.2186,17.5956,108.3733,251.7434,0.0013436,0.0002119,0.0,0 STARLINK-3991,1 52641U 22052AV  23336.41483250  .00021190  00000-0  13436-2 0  9995,2 52641  53.2186  17.5956 0001604 108.3733 251.7434 15.08891059 86460,6917.724,95.434,540.699,538.48,0.0
52641.0,STARLINK-3991,PAYLOAD,2023-12-03 11:23:34,15.08795083,0.0001353,53.2175,12.8412,70.7864,289.3274,-0.00064777,-0.0001057,0.0,0 STARLINK-3991,1 52641U 22052AV  23337.47469936 -.00010570  00000-0 -64777-3 0  9994,2 52641  53.2175  12.8412 0001353  70.7864 289.3274 15.08795083 86628,6918.018,95.44,540.819,538.947,0.0
